XRISM                   
1 57800U 23137A   24016.12903032  .00005934  00000+0  46839-3 0  9992
2 57800  31.0027 265.3777 0009657 133.1083 227.0361 14.99252573 19602
